GLOBALSTAR M063 [+]     
1 26081U 00008A   24047.45330558 -.00000061  00000+0  32211-3 0  9994
2 26081  51.9974 313.4355 0005166  96.5498  74.3903 11.86151449 99810
GLOBALSTAR M062 [-]     
1 26082U 00008B   24047.39212433 -.00000109  00000+0 -75978-4 0  9991
2 26082  51.9844  87.2543 0007530 152.3852 221.4075 12.43428226436065
GLOBALSTAR M060 [-]     
1 26083U 00008C   24047.55443493  .00000105  00000+0  19442-2 0  9998
2 26083  52.0050 337.9425 0002836 213.9579 317.1168 12.17627574 93080
GLOBALSTAR M064 [-]     
1 26084U 00008D   24047.28755622 -.00000082  00000+0  12448-4 0  9995
2 26084  52.0035  58.4369 0001603 194.1381 165.9407 11.88515590109206
GLOBALSTAR M065 [+]     
1 31571U 07020A   24047.39649685 -.00000070  00000+0  18642-3 0  9994
2 31571  51.9877 267.8458 0009685 312.6160 220.1051 12.61962556771945
GLOBALSTAR M069 [+]     
1 31573U 07020C   24047.63633975 -.00000074  00000+0  16786-3 0  9999
2 31573  51.9927 223.0966 0001786  97.6541 339.2455 12.62266517773103
GLOBALSTAR M072 [+]     
1 31574U 07020D   24047.49445249 -.00000088  00000+0  85524-4 0  9991
2 31574  52.0103 319.3585 0000889  43.2419 128.2415 12.62267395771354
GLOBALSTAR M071 [P]     
1 31576U 07020F   24047.28788898 -.00000082  00000+0  12057-3 0  9994
2 31576  52.0038 229.2283 0002120 104.3415  67.9393 12.62267398434243
